[{"OBJECT_NAME":"STARLINK-34702","OBJECT_ID":"2025-157E","EPOCH":"2026-03-09T22:34:31.401408","MEAN_MOTION":15.302022,"ECCENTRICITY":0.0001674,"INCLINATION":53.1594,"RA_OF_ASC_NODE":344.4031,"ARG_OF_PERICENTER":134.9591,"MEAN_ANOMALY":225.1545,"EPHEMERIS_TYPE":0,"CLASSIFICATION_TYPE":"U","NORAD_CAT_ID":64908,"ELEMENT_SET_NO":999,"REV_AT_EPOCH":3616,"BSTAR":0.0016249545,"MEAN_MOTION_DOT":0.00048083,"MEAN_MOTION_DDOT":0},{"OBJECT_NAME":"COSMOS 1862","OBJECT_ID":"1987-055A","EPOCH":"2026-03-09T22:37:02.390592","MEAN_MOTION":15.30492139,"ECCENTRICITY":0.00097484,"INCLINATION":82.4856,"RA_OF_ASC_NODE":47.1862,"ARG_OF_PERICENTER":26.6325,"MEAN_ANOMALY":333.5414,"EPHEMERIS_TYPE":0,"CLASSIFICATION_TYPE":"U","NORAD_CAT_ID":18152,"ELEMENT_SET_NO":999,"REV_AT_EPOCH":8987,"BSTAR":0.00034125048,"MEAN_MOTION_DOT":0.00010107,"MEAN_MOTION_DDOT":0}]
